NORAD_CAT_ID,OBJECT_NAME,OBJECT_TYPE,EPOCH,MEAN_MOTION,ECCENTRICITY,INCLINATION,RA_OF_ASC_NODE,ARG_OF_PERICENTER,MEAN_ANOMALY,BSTAR,MEAN_MOTION_DOT,MEAN_MOTION_DDOT,TLE_LINE0,TLE_LINE1,TLE_LINE2,SEMIMAJOR_AXIS,PERIOD,APOGEE,PERIGEE,DECAYED
51144.0,STARLINK-3185,PAYLOAD,2024-03-15 23:11:42,15.08845573,0.0001715,53.2157,308.0376,150.9342,209.1746,0.00010116,1.323e-05,0.0,0 STARLINK-3185,1 51144U 22005AS  24075.96645995  .00001323  00000-0  10116-3 0  9996,2 51144  53.2157 308.0376 0001715 150.9342 209.1746 15.08845573120597,6917.863,95.437,540.915,538.542,0.0
51144.0,STARLINK-3185,PAYLOAD,2024-03-16 15:05:34,15.08845507,0.0001735,53.2166,305.0693,75.1675,284.9509,0.0001205,1.63e-05,0.0,0 STARLINK-3185,1 51144U 22005AS  24076.62886667  .00001630  00000-0  12050-3 0  9993,2 51144  53.2166 305.0693 0001735  75.1675 284.9509 15.08845507119587,6917.864,95.437,540.929,538.528,0.0
51144.0,STARLINK-3185,PAYLOAD,2024-03-16 19:51:45,15.08760334,0.0001324,53.2175,304.1727,78.3152,281.7989,-0.0014993,-0.00024018,0.0,0 STARLINK-3185,1 51144U 22005AS  24076.82761511 -.00024018  00000-0 -14993-2 0  9999,2 51144  53.2175 304.1727 0001324  78.3152 281.7989 15.08760334120723,6918.124,95.443,540.905,539.073,0.0
51144.0,STARLINK-3185,PAYLOAD,2024-03-16 21:27:12,15.08674176,0.0001859,53.2163,303.8806,110.0018,250.1174,-0.0030628,-0.00048486,0.0,0 STARLINK-3185,1 51144U 22005AS  24076.89389931 -.00048486  00000-0 -30628-2 0  9996,2 51144  53.2163 303.8806 0001859 110.0018 250.1174 15.08674176119623,6918.387,95.448,541.538,538.966,0.0
51144.0,STARLINK-3185,PAYLOAD,2024-03-17 00:38:02,15.08607367,0.000214,53.2163,303.2852,82.8902,277.2334,-0.0040497,-0.00063765,0.0,0 STARLINK-3185,1 51144U 22005AS  24077.02642011 -.00063765  00000-0 -40497-2 0  9995,2 51144  53.2163 303.2852 0002140  82.8902 277.2334 15.08607367120752,6918.592,95.452,541.937,538.976,0.0
51144.0,STARLINK-3185,PAYLOAD,2024-03-17 05:24:18,15.08500887,0.0001346,53.2164,302.3934,110.528,249.5857,-0.0055065,-0.00086076,0.0,0 STARLINK-3185,1 51144U 22005AS  24077.22520975 -.00086076  00000-0 -55065-2 0  9998,2 51144  53.2164 302.3934 0001346 110.5280 249.5857 15.08500887120783,6918.917,95.459,541.713,539.851,0.0
51144.0,STARLINK-3185,PAYLOAD,2024-03-17 14:56:52,15.08318998,0.0001593,53.2171,300.6095,100.2221,259.8951,-0.0070092,-0.00108605,0.0,0 STARLINK-3185,1 51144U 22005AS  24077.62282592 -.00108605  00000-0 -70092-2 0  9992,2 51144  53.2171 300.6095 0001593 100.2221 259.8951 15.08318998119737,6919.473,95.471,542.441,540.236,0.0
51144.0,STARLINK-3185,PAYLOAD,2024-03-17 21:18:34,15.08254308,0.0001419,53.2169,299.4199,104.636,255.4789,-0.0066097,-0.00102339,0.0,0 STARLINK-3185,1 51144U 22005AS  24077.88790293 -.00102339  00000-0 -66097-2 0  9990,2 51144  53.2169 299.4199 0001419 104.6360 255.4789 15.08254308120886,6919.671,95.475,542.518,540.554,0.0
51144.0,STARLINK-3185,PAYLOAD,2024-03-18 05:15:44,15.08189029,0.0001521,53.2153,297.9349,89.5264,270.5902,-0.0056314,-0.00087263,0.0,0 STARLINK-3185,1 51144U 22005AS  24078.21926412 -.00087263  00000-0 -56314-2 0  9991,2 51144  53.2153 297.9349 0001521  89.5264 270.5902 15.08189029120935,6919.871,95.479,542.788,540.683,0.0
51144.0,STARLINK-3185,PAYLOAD,2024-03-18 14:48:18,15.081813,0.0001322,53.2168,296.1502,82.5707,277.5435,-0.0025106,-0.00039315,0.0,0 STARLINK-3185,1 51144U 22005AS  24078.61688324 -.00039315  00000-0 -25106-2 0  9992,2 51144  53.2168 296.1502 0001322  82.5707 277.5435 15.08181300119881,6919.895,95.479,542.674,540.845,0.0
51144.0,STARLINK-3185,PAYLOAD,2024-03-18 21:09:55,15.0834612,0.000202,53.2171,294.9627,108.9956,251.1255,0.001732,0.00027014,0.0,0 STARLINK-3185,1 51144U 22005AS  24078.88189088  .00027014  00000-0  17320-2 0  9994,2 51144  53.2171 294.9627 0002020 108.9956 251.1255 15.08346120119920,6919.39,95.469,542.653,539.858,0.0
51144.0,STARLINK-3185,PAYLOAD,2024-03-19 03:31:29,15.0852657,0.000175,53.2168,293.769,117.8556,242.2614,0.005964,0.00095093,0.0,0 STARLINK-3185,1 51144U 22005AS  24079.14686754  .00095093  00000-0  59640-2 0  9999,2 51144  53.2168 293.7690 0001750 117.8556 242.2614 15.08526570121075,6918.839,95.457,541.914,539.493,0.0
51144.0,STARLINK-3185,PAYLOAD,2024-03-19 05:06:52,15.08557517,0.0001525,53.2169,293.4744,127.0156,233.0976,0.006479,0.0010354,0.0,0 STARLINK-3185,1 51144U 22005AS  24079.21311322  .00103540  00000-0  64790-2 0  9992,2 51144  53.2169 293.4744 0001525 127.0156 233.0976 15.08557517119972,6918.744,95.455,541.664,539.554,0.0
51144.0,STARLINK-3185,PAYLOAD,2024-03-19 21:00:52,15.08656424,0.0001366,53.2154,290.5028,92.5409,267.5739,0.0062897,0.00100739,0.0,0 STARLINK-3185,1 51144U 22005AS  24079.87561274  .00100739  00000-0  62897-2 0  9990,2 51144  53.2154 290.5028 0001366  92.5409 267.5739 15.08656424121181,6918.442,95.449,541.252,539.362,0.0
51144.0,STARLINK-3185,PAYLOAD,2024-03-20 12:54:45,15.08741099,0.0001086,53.2168,287.528,110.1693,249.9416,0.0034229,0.0005446,0.0,0 STARLINK-3185,1 51144U 22005AS  24080.53803220  .00054460  00000-0  34229-2 0  9992,2 51144  53.2168 287.5280 0001086 110.1693 249.9416 15.08741099120170,6918.183,95.444,540.799,539.296,0.0
51144.0,STARLINK-3185,PAYLOAD,2024-03-20 20:51:40,15.08773378,0.0001436,53.2162,286.0421,104.6421,255.473,0.0019469,0.00030776,0.0,0 STARLINK-3185,1 51144U 22005AS  24080.86922005  .00030776  00000-0  19469-2 0  9994,2 51144  53.2162 286.0421 0001436 104.6421 255.4730 15.08773378121336,6918.084,95.442,540.942,538.956,0.0
51144.0,STARLINK-3185,PAYLOAD,2024-03-20 22:27:02,15.08806788,0.0001385,53.2156,285.7452,98.4695,261.6454,0.0014252,0.00022446,0.0,0 STARLINK-3185,1 51144U 22005AS  24080.93544735  .00022446  00000-0  14252-2 0  9992,2 51144  53.2156 285.7452 0001385  98.4695 261.6454 15.08806788120237,6917.982,95.44,540.805,538.889,0.0
51144.0,STARLINK-3185,PAYLOAD,2024-03-21 00:02:25,15.08812576,0.0001438,53.2153,285.447,104.385,255.7302,0.0013266,0.00020872,0.0,0 STARLINK-3185,1 51144U 22005AS  24081.00168494  .00020872  00000-0  13266-2 0  9990,2 51144  53.2153 285.4470 0001438 104.3850 255.7302 15.08812576121352,6917.964,95.439,540.824,538.834,0.0
51144.0,STARLINK-3185,PAYLOAD,2024-03-21 12:45:29,15.08835376,0.0001383,53.2147,283.0669,95.6885,264.4264,0.00030753,4.609e-05,0.0,0 STARLINK-3185,1 51144U 22005AS  24081.53159455  .00004609  00000-0  30753-3 0  9996,2 51144  53.2147 283.0669 0001383  95.6885 264.4264 15.08835376121434,6917.895,95.438,540.716,538.803,0.0
51144.0,STARLINK-3185,PAYLOAD,2024-03-21 20:42:24,15.08853649,0.0001509,53.2155,281.581,85.9435,274.173,0.00045844,7.018e-05,0.0,0 STARLINK-3185,1 51144U 22005AS  24081.86278797  .00007018  00000-0  45844-3 0  9997,2 51144  53.2155 281.5810 0001509  85.9435 274.1730 15.08853649121481,6917.839,95.437,540.748,538.66,0.0
51144.0,STARLINK-3185,PAYLOAD,2024-03-22 12:36:16,15.08842631,0.0001315,53.2159,278.6079,100.0484,260.0656,0.00018501,2.658e-05,0.0,0 STARLINK-3185,1 51144U 22005AS  24082.52519061  .00002658  00000-0  18501-3 0  9998,2 51144  53.2159 278.6079 0001315 100.0484 260.0656 15.08842631121588,6917.872,95.437,540.647,538.828,0.0
51144.0,STARLINK-3185,PAYLOAD,2024-03-22 20:33:11,15.08847221,0.0001317,53.2151,277.1208,97.8924,262.2217,0.0002257,3.307e-05,0.0,0 STARLINK-3185,1 51144U 22005AS  24082.85638877  .00003307  00000-0  22570-3 0  9994,2 51144  53.2151 277.1208 0001317  97.8924 262.2217 15.08847221120522,6917.858,95.437,540.634,538.812,0.0
51144.0,STARLINK-3185,PAYLOAD,2024-03-23 12:27:03,15.08839707,0.0001394,53.2161,274.147,106.9484,253.1661,9.0969e-05,1.16e-05,0.0,0 STARLINK-3185,1 51144U 22005AS  24083.51879293  .00001160  00000-0  90969-4 0  9990,2 51144  53.2161 274.1470 0001394 106.9484 253.1661 15.08839707121735,6917.881,95.438,540.711,538.782,0.0
51144.0,STARLINK-3185,PAYLOAD,2024-03-23 20:23:59,15.08844558,0.0001467,53.2162,272.662,85.27,274.846,0.00024601,3.63e-05,0.0,0 STARLINK-3185,1 51144U 22005AS  24083.84999355  .00003630  00000-0  24601-3 0  9991,2 51144  53.2162 272.6620 0001467  85.2700 274.8460 15.08844558120676,6917.866,95.437,540.746,538.717,0.0
51144.0,STARLINK-3185,PAYLOAD,2024-03-24 05:56:18,15.08853196,0.0001391,53.2157,270.8769,84.8782,275.2369,0.00049264,7.564e-05,0.0,0 STARLINK-3185,1 51144U 22005AS  24084.24743069  .00007564  00000-0  49264-3 0  9997,2 51144  53.2157 270.8769 0001391  84.8782 275.2369 15.08853196121846,6917.84,95.437,540.667,538.743,0.0
51144.0,STARLINK-3185,PAYLOAD,2024-03-24 17:03:59,15.08867301,0.0001449,53.2153,268.7948,82.6422,277.4734,0.00086177,0.00013464,0.0,0 STARLINK-3185,1 51144U 22005AS  24084.71110534  .00013464  00000-0  86177-3 0  9994,2 51144  53.2153 268.7948 0001449  82.6422 277.4734 15.08867301120806,6917.797,95.436,540.664,538.66,0.0
51144.0,STARLINK-3185,PAYLOAD,2024-03-25 12:08:36,15.08870878,0.0001272,53.2163,265.2259,74.6349,285.4784,0.00063181,9.79e-05,0.0,0 STARLINK-3185,1 51144U 22005AS  24085.50597555  .00009790  00000-0  63181-3 0  9991,2 51144  53.2163 265.2259 0001272  74.6349 285.4784 15.08870878122031,6917.786,95.436,540.531,538.771,0.0
51144.0,STARLINK-3185,PAYLOAD,2024-03-25 18:30:09,15.08813996,0.0001166,53.2164,264.0355,89.6492,270.4634,-0.00097304,-0.00015729,0.0,0 STARLINK-3185,1 51144U 22005AS  24085.77094430 -.00015729  00000-0 -97304-3 0  9999,2 51144  53.2164 264.0355 0001166  89.6492 270.4634 15.08813996122073,6917.96,95.439,540.632,539.018,0.0
51144.0,STARLINK-3185,PAYLOAD,2024-03-26 15:10:12,15.08811001,0.0001042,53.2163,260.1691,86.3003,273.8108,0.0011723,0.00018404,0.0,0 STARLINK-3185,1 51144U 22005AS  24086.63209096  .00018404  00000-0  11723-2 0  9992,2 51144  53.2163 260.1691 0001042  86.3003 273.8108 15.08811001121096,6917.969,95.439,540.555,539.113,0.0
51144.0,STARLINK-3185,PAYLOAD,2024-03-26 18:20:59,15.08823472,0.0001028,53.2163,259.5755,84.1111,275.9998,0.0015302,0.00024138,0.0,0 STARLINK-3185,1 51144U 22005AS  24086.76457240  .00024138  00000-0  15302-2 0  9990,2 51144  53.2163 259.5755 0001028  84.1111 275.9998 15.08823472122220,6917.931,95.439,540.507,539.085,0.0
